[{"OBJECT_NAME":"HAWK-2A","OBJECT_ID":"2021-006CW","EPOCH":"2026-03-09T16:18:25.817472","MEAN_MOTION":15.33304498,"ECCENTRICITY":0.00064498,"INCLINATION":97.2459,"RA_OF_ASC_NODE":115.6184,"ARG_OF_PERICENTER":187.1463,"MEAN_ANOMALY":172.9689,"EPHEMERIS_TYPE":0,"CLASSIFICATION_TYPE":"U","NORAD_CAT_ID":47505,"ELEMENT_SET_NO":999,"REV_AT_EPOCH":28424,"BSTAR":0.0002543136,"MEAN_MOTION_DOT":8.113e-5,"MEAN_MOTION_DDOT":0},{"OBJECT_NAME":"STARLINK-33575","OBJECT_ID":"2025-015C","EPOCH":"2026-03-09T23:22:19.413120","MEAN_MOTION":15.30204787,"ECCENTRICITY":9.424e-5,"INCLINATION":53.1594,"RA_OF_ASC_NODE":321.1786,"ARG_OF_PERICENTER":133.3549,"MEAN_ANOMALY":226.753,"EPHEMERIS_TYPE":0,"CLASSIFICATION_TYPE":"U","NORAD_CAT_ID":62760,"ELEMENT_SET_NO":999,"REV_AT_EPOCH":6376,"BSTAR":0.00076854083,"MEAN_MOTION_DOT":0.00022475,"MEAN_MOTION_DDOT":0}]
